24903,IRIDIUM 26,1997,100.2,-1.0,-,86.4,Inactive,0,LEO,USA,USA,Unknown,Unknown,Unknown,1 24903U 97043A   25098.48845881  .00000748  00000+0  24546-3 0  9993,2 24903  86.3959 139.9052 0002184  89.1678 270.9770 14.37071558446730,14.37071558,0.0002184,LEO
24907,IRIDIUM 22,1997,100.29,-1.0,-,86.4,Inactive,0,LEO,USA,USA,Unknown,Unknown,Unknown,1 24907U 97043E   25098.50029022  .00000618  00000+0  20658-3 0  9997,2 24907  86.3971 143.3766 0002275  93.8885 266.2572 14.35895094446771,14.35895094,0.0002275,LEO
24925,DUMMY MASS 1,1997,96.84,-1.0,-,86.34,Inactive,0,LEO,PRC,China,Unknown,Unknown,Unknown,1 24925U 97048A   25098.56389545  .00000817  00000+0  88280-4 0  9994,2 24925  86.3398 167.5081 0008211  48.1325 312.0599 14.86914337494781,14.86914337,0.0008211,LEO
24926,DUMMY MASS 2,1997,96.86,-1.0,-,86.34,Inactive,0,LEO,PRC,China,Unknown,Unknown,Unknown,1 24926U 97048B   25098.51446683  .00000815  00000+0  88629-4 0  9992,2 24926  86.3400 169.1234 0009303  56.2352 303.9758 14.86667112494790,14.86667112,0.0009303,LEO
24944,IRIDIUM 29,1997,100.25,-1.0,-,86.4,Inactive,0,LEO,Kazakhstan,USA,Unknown,Unknown,Unknown,1 24944U 97051A   25098.47804515  .00000817  00000+0  27241-3 0  9997,2 24944  86.4020 173.1173 0002372  98.9336 261.2129 14.36394413443260,14.36394413,0.0002372,LEO
24946,IRIDIUM 33,1997,100.36,-1.0,-,86.39,Inactive,0,LEO,Kazakhstan,USA,Unknown,Unknown,Unknown,1 24946U 97051C   25098.45357371  .00000536  00000+0  18189-3 0  9999,2 24946  86.3935 172.3825 0006030 317.4485  42.6243 14.34842659442748,14.34842659,0.000603,LEO
24948,IRIDIUM 28,1997,100.19,-1.0,-,86.4,Inactive,0,LEO,Kazakhstan,USA,Unknown,Unknown,Unknown,1 24948U 97051E   25098.42695061  .00000747  00000+0  24404-3 0  9990,2 24948  86.4023 170.6973 0001924  86.5223 273.6195 14.37322995443826,14.37322995,0.0001924,LEO
24967,IRIDIUM 36,1997,100.17,-1.0,-,86.4,Inactive,0,LEO,USA,USA,Unknown,Unknown,Unknown,1 24967U 97056C   25098.33134114  .00000973  00000+0  31856-3 0  9993,2 24967  86.4031 202.3074 0001934  98.7338 261.4079 14.37535330442187,14.3753533,0.0001934,LEO
